{
  "type": "FeatureCollection",
  "name": "lake_geneva_simple",
  "features": [
    {
      "type": "Feature",
      "properties": {
        "key": "geneva",
        "name": "Lake Geneva"
      },
      "geometry": {
        "type": "Polygon",
        "coordinates": [
          [
            [5.965, 46.215],
            [6.055, 46.205],
            [6.155, 46.205],
            [6.265, 46.255],
            [6.390, 46.330],
            [6.535, 46.415],
            [6.650, 46.500],
            [6.760, 46.505],
            [6.850, 46.455],
            [6.865, 46.420],
            [6.730, 46.385],
            [6.585, 46.385],
            [6.455, 46.350],
            [6.315, 46.285],
            [6.185, 46.220],
            [6.050, 46.185],
            [5.965, 46.215]
          ]
        ]
      }
    }
  ]
}
